LANDSAT 9               
1 49260U 21088A   24128.44991160  .00000809  00000+0  18958-3 0  9991
2 49260  98.1886 198.7550 0001323  88.8568 271.2782 14.57113539138763
